{
    "links": {
        "self": "http://www.neowsapp.com/rest/v1/neo/3788149?api_key=iIulBulltgU6a56xZRHN4H3l9WmuAYTsLGpBGhQ2"
    },
    "id": "3788149",
    "neo_reference_id": "3788149",
    "name": "(2017 UL43)",
    "designation": "2017 UL43",
    "nasa_jpl_url": "http://ssd.jpl.nasa.gov/sbdb.cgi?sstr=3788149",
    "absolute_magnitude_h": 26.3,
    "estimated_diameter": {
        "kilometers": {
            "estimated_diameter_min": 0.0146067964,
            "estimated_diameter_max": 0.0326617897
        },
        "meters": {
            "estimated_diameter_min": 14.6067964271,
            "estimated_diameter_max": 32.6617897446
        },
        "miles": {
            "estimated_diameter_min": 0.0090762397,
            "estimated_diameter_max": 0.020295089
        },
        "feet": {
            "estimated_diameter_min": 47.92256199,
            "estimated_diameter_max": 107.1581062656
        }
    },
    "is_potentially_hazardous_asteroid": false,
    "close_approach_data": [
        {
            "close_approach_date": "2017-10-30",
            "close_approach_date_full": "2017-Oct-30 16:47",
            "epoch_date_close_approach": 1509382020000,
            "relative_velocity": {
                "kilometers_per_second": "10.4323896817",
                "kilometers_per_hour": "37556.6028541945",
                "miles_per_hour": "23336.212479041"
            },
            "miss_distance": {
                "astronomical": "0.0363311778",
                "lunar": "14.1328281642",
                "kilometers": "5435066.813471286",
                "miles": "3377193.9153283068"
            },
            "orbiting_body": "Earth"
        }
    ],
    "orbital_data": {
        "orbit_id": "1",
        "orbit_determination_date": "2017-10-30 11:31:44",
        "first_observation_date": "2017-10-28",
        "last_observation_date": "2017-10-30",
        "data_arc_in_days": 2,
        "observations_used": 16,
        "orbit_uncertainty": "8",
        "minimum_orbit_intersection": ".034462",
        "jupiter_tisserand_invariant": "4.549",
        "epoch_osculation": "2458055.5",
        "eccentricity": ".3092811919622633",
        "semi_major_axis": "1.44975084061731",
        "inclination": "16.95478183480503",
        "ascending_node_longitude": "216.1004158212661",
        "orbital_period": "637.5855719001338",
        "perihelion_distance": "1.001370172582895",
        "perihelion_argument": "207.8301780522632",
        "aphelion_distance": "1.898131508651725",
        "perihelion_time": "2458080.637782349798",
        "mean_anomaly": "345.8064516438827",
        "mean_motion": ".5646300918120328",
        "equinox": "J2000",
        "orbit_class": {
            "orbit_class_type": "APO",
            "orbit_class_description": "Near-Earth asteroid orbits which cross the Earth’s orbit similar to that of 1862 Apollo",
            "orbit_class_range": "a (semi-major axis) > 1.0 AU; q (perihelion) < 1.017 AU"
        }
    },
    "is_sentry_object": false
}